GLOBALSTAR M045         
1 25676U 99019A   24202.34444278 -.00000097  00000+0 -34535-4 0  9991
2 25676  51.9947 171.0755 0000624 313.6718 197.1580 12.27041588152658
GLOBALSTAR M019         
1 25677U 99019B   24202.49436515  .00000002  00000+0  95737-3 0  9997
2 25677  51.9881 277.6801 0000715  46.2888 327.0554 12.13861097144868
GLOBALSTAR M044         
1 25678U 99019C   24202.48594565 -.00000072  00000+0  16808-3 0  9997
2 25678  51.9937 187.5638 0006224 119.1547  29.4168 11.90235445131801
GLOBALSTAR M042         
1 25679U 99019D   24202.47602208 -.00000009  00000+0  78651-3 0  9995
2 25679  52.0008 267.3726 0002511 335.3053  38.3034 12.22065437144709
GLOBALSTAR M025         
1 25770U 99031A   24202.45665941 -.00000054  00000+0  42229-3 0  9994
2 25770  51.9776 207.7465 0001720 305.1394 208.5855 11.22551505444455
GLOBALSTAR M049         
1 25771U 99031B   24202.41469531  .00000021  00000+0  30054-2 0  9993
2 25771  51.9834 225.9344 0003013 181.3718 178.7071 11.12107314 80515
GLOBALSTAR M047         
1 25772U 99031C   24202.46511539 -.00000039  00000+0  85935-3 0  9994
2 25772  51.9812 254.4835 0016031  53.9594 306.2695 11.31921294433541
GLOBALSTAR M052         
1 25773U 99031D   24202.62085029 -.00000055  00000+0  34827-3 0  9995
2 25773  51.9898 338.8061 0002153 356.4990  17.4807 11.15052255441522
